     3.02           N: GNSS NAV DATA    M: MIXED            RINEX VERSION / TYPE
UnicoreConvert      Unicore             20250714 021217 UTC PGM / RUN BY / DATE 
                                                            LEAP SECONDS        
                                                            END OF HEADER
E15 2025 05 28 08 50 00 -.176489062100D-03 -.238742400000D-11  .000000000000D+00
      .104000000000D+03 -.143400000000D+02  .281550000000D-08  .120594616000D+01
     -.616540000000D-06  .186362536600D-03 -.491550000000D-05  .544060300000D+04
      .291000000000D+06 -.122930000000D-06  .190970838400D+01 -.223520000000D-07
      .999229023800D+00  .466800000000D+03 -.108670916500D+00 -.592203239000D-08
     -.151430000000D-09  .517000000000D+03  .236800000000D+04                                      
      .312000000000D+01  .000000000000D+00  .512200000000D-08  .558800000000D-08
      .291000000000D+06